{
  "links" : {
    "next" : "https://api.nasa.gov/neo/rest/v1/feed?start_date=2016-06-23&end_date=2016-06-23&detailed=true&api_key=t0TVs3DtDT2H8Oy2Zy8m2eVrNsAVKAexjcZXUckd",
    "prev" : "https://api.nasa.gov/neo/rest/v1/feed?start_date=2016-06-21&end_date=2016-06-21&detailed=true&api_key=t0TVs3DtDT2H8Oy2Zy8m2eVrNsAVKAexjcZXUckd",
    "self" : "https://api.nasa.gov/neo/rest/v1/feed?start_date=2016-06-22&end_date=2016-06-22&detailed=true&api_key=t0TVs3DtDT2H8Oy2Zy8m2eVrNsAVKAexjcZXUckd"
  },
  "element_count" : 8,
  "near_earth_objects" : {
    "2016-06-22" : [ {
      "links" : {
        "self" : "https://api.nasa.gov/neo/rest/v1/neo/3753856?api_key=t0TVs3DtDT2H8Oy2Zy8m2eVrNsAVKAexjcZXUckd"
      },
      "neo_reference_id" : "3753856",
      "name" : "(2016 LH10)",
      "nasa_jpl_url" : "http://ssd.jpl.nasa.gov/sbdb.cgi?sstr=3753856",
      "absolute_magnitude_h" : 25.2,
      "estimated_diameter" : {
        "kilometers" : {
          "estimated_diameter_min" : 0.0242412481,
          "estimated_diameter_max" : 0.0542050786
        },
        "meters" : {
          "estimated_diameter_min" : 24.2412481101,
          "estimated_diameter_max" : 54.2050786336
        },
        "miles" : {
          "estimated_diameter_min" : 0.0150628086,
          "estimated_diameter_max" : 0.0336814639
        },
        "feet" : {
          "estimated_diameter_min" : 79.5316564495,
          "estimated_diameter_max" : 177.8381901842
        }
      },
      "is_potentially_hazardous_asteroid" : false,
      "close_approach_data" : [ {
        "close_approach_date" : "2016-06-22",
        "epoch_date_close_approach" : 1466578800000,
        "relative_velocity" : {
          "kilometers_per_second" : "8.6584724702",
          "kilometers_per_hour" : "31170.5008925917",
          "miles_per_hour" : "19368.1370685107"
        },
        "miss_distance" : {
          "astronomical" : "0.0573601752",
          "lunar" : "22.3131084442",
          "kilometers" : "8580960",
          "miles" : "5331961.5"
        },
        "orbiting_body" : "Earth"
      } ],
      "orbital_data" : {
        "orbit_id" : "6",
        "orbit_determination_date" : "2017-04-06 08:25:27",
        "orbit_uncertainty" : "8",
        "minimum_orbit_intersection" : ".0158044",
        "jupiter_tisserand_invariant" : "5.279",
        "epoch_osculation" : "2457547.5",
        "eccentricity" : ".3149285946726142",
        "semi_major_axis" : "1.189274416153019",
        "inclination" : "5.01269716251737",
        "ascending_node_longitude" : "235.4708710484924",
        "orbital_period" : "473.7198045618064",
        "perihelion_distance" : ".8147378955938551",
        "perihelion_argument" : "116.6379173374727",
        "aphelion_distance" : "1.563810936712183",
        "perihelion_time" : "2457625.266443445981",
        "mean_anomaly" : "300.9019437841541",
        "mean_motion" : ".7599428956384928",
        "equinox" : "J2000"
      }
    }, {
      "links" : {
        "self" : "https://api.nasa.gov/neo/rest/v1/neo/3753831?api_key=t0TVs3DtDT2H8Oy2Zy8m2eVrNsAVKAexjcZXUckd"
      },
      "neo_reference_id" : "3753831",
      "name" : "(2016 LR9)",
      "nasa_jpl_url" : "http://ssd.jpl.nasa.gov/sbdb.cgi?sstr=3753831",
      "absolute_magnitude_h" : 25.1,
      "estimated_diameter" : {
        "kilometers" : {
          "estimated_diameter_min" : 0.0253837029,
          "estimated_diameter_max" : 0.0567596853
        },
        "meters" : {
          "estimated_diameter_min" : 25.3837029364,
          "estimated_diameter_max" : 56.7596852866
        },
        "miles" : {
          "estimated_diameter_min" : 0.0157726969,
          "estimated_diameter_max" : 0.0352688224
        },
        "feet" : {
          "estimated_diameter_min" : 83.279867942,
          "estimated_diameter_max" : 186.2194458756
        }
      },
      "is_potentially_hazardous_asteroid" : false,
      "close_approach_data" : [ {
        "close_approach_date" : "2016-06-22",
        "epoch_date_close_approach" : 1466578800000,
        "relative_velocity" : {
          "kilometers_per_second" : "7.9769041495",
          "kilometers_per_hour" : "28716.8549381956",
          "miles_per_hour" : "17843.5368920138"
        },
        "miss_distance" : {
          "astronomical" : "0.0675587472",
          "lunar" : "26.2803535461",
          "kilometers" : "10106645",
          "miles" : "6279978"
        },
        "orbiting_body" : "Earth"
      } ],
      "orbital_data" : {
        "orbit_id" : "9",
        "orbit_determination_date" : "2017-04-06 08:25:29",
        "orbit_uncertainty" : "7",
        "minimum_orbit_intersection" : ".0539776",
        "jupiter_tisserand_invariant" : "3.024",
        "epoch_osculation" : "2458000.5",
        "eccentricity" : ".6174605539575403",
        "semi_major_axis" : "2.772117156886089",
        "inclination" : "3.071123416605627",
        "ascending_node_longitude" : "136.6234327027844",
        "orbital_period" : "1685.837841092535",
        "perihelion_distance" : "1.060444161560003",
        "perihelion_argument" : "143.5735590299713",
        "aphelion_distance" : "4.483790152212175",
        "perihelion_time" : "2457568.528733256669",
        "mean_anomaly" : "92.24472973439633",
        "mean_motion" : ".2135436702302851",
        "equinox" : "J2000"
      }
    }, {
      "links" : {
        "self" : "https://api.nasa.gov/neo/rest/v1/neo/3751725?api_key=t0TVs3DtDT2H8Oy2Zy8m2eVrNsAVKAexjcZXUckd"
      },
      "neo_reference_id" : "3751725",
      "name" : "(2016 GU216)",
      "nasa_jpl_url" : "http://ssd.jpl.nasa.gov/sbdb.cgi?sstr=3751725",
      "absolute_magnitude_h" : 18.6,
      "estimated_diameter" : {
        "kilometers" : {
          "estimated_diameter_min" : 0.5064714588,
          "estimated_diameter_max" : 1.1325046106
        },
        "meters" : {
          "estimated_diameter_min" : 506.4714588346,
          "estimated_diameter_max" : 1132.5046106177
        },
        "miles" : {
          "estimated_diameter_min" : 0.3147066768,
          "estimated_diameter_max" : 0.7037055224
        },
        "feet" : {
          "estimated_diameter_min" : 1661.651821003,
          "estimated_diameter_max" : 3715.566426699
        }
      },
      "is_potentially_hazardous_asteroid" : false,
      "close_approach_data" : [ {
        "close_approach_date" : "2016-06-22",
        "epoch_date_close_approach" : 1466578800000,
        "relative_velocity" : {
          "kilometers_per_second" : "22.1095221197",
          "kilometers_per_hour" : "79594.2796309409",
          "miles_per_hour" : "49456.7900295699"
        },
        "miss_distance" : {
          "astronomical" : "0.3295866587",
          "lunar" : "128.2092132568",
          "kilometers" : "49305464",
          "miles" : "30636994"
        },
        "orbiting_body" : "Earth"
      } ],
      "orbital_data" : {
        "orbit_id" : "20",
        "orbit_determination_date" : "2017-04-06 08:26:37",
        "orbit_uncertainty" : "4",
        "minimum_orbit_intersection" : ".280913",
        "jupiter_tisserand_invariant" : "3.009",
        "epoch_osculation" : "2458000.5",
        "eccentricity" : ".7198647248651696",
        "semi_major_axis" : "2.457367171434914",
        "inclination" : "20.78459067669406",
        "ascending_node_longitude" : "264.0021992147542",
        "orbital_period" : "1407.030478584928",
        "perihelion_distance" : ".6883952286772196",
        "perihelion_argument" : "11.87390583074238",
        "aphelion_distance" : "4.226339114192609",
        "perihelion_time" : "2457565.564081825968",
        "mean_anomaly" : "111.2818328570418",
        "mean_motion" : ".2558579970222518",
        "equinox" : "J2000"
      }
    } ]
  }
}